start=new Date('2023-04-12T00:00:00.000Z').valueOf();
sats=[{"SITE":"AFETR","CLASSIFICATION_TYPE":"U","TLE_LINE1":"1 47825U 21018AQ  23101.66486109  .00023587  00000-0  15967-2 0  9990","MEAN_MOTION":"15.06408465","FILE":"3885919","PERIOD":"95.592","ECCENTRICITY":"0.00012000","DECAY_DATE":null,"LAUNCH_DATE":"2021-03-11","COUNTRY_CODE":"US","TLE_LINE2":"2 47825  53.0541 343.7198 0001200  72.9681 287.1439 15.06408465116378","PERIAPSIS":"546.357","REF_FRAME":"TEME","OBJECT_NAME":"STARLINK-2410","EPOCH":"2023-04-11T15:57:23.998176","RA_OF_ASC_NODE":"343.7198","TIME_SYSTEM":"UTC","MEAN_ANOMALY":"287.1439","ELEMENT_SET_NO":"999","INCLINATION":"53.0541","RCS_SIZE":"LARGE","ARG_OF_PERICENTER":"72.9681","OBJECT_ID":"2021-018AQ","GP_ID":"229943942","CENTER_NAME":"EARTH","BSTAR":"0.00159670000000","NORAD_CAT_ID":"47825","EPHEMERIS_TYPE":"0","MEAN_ELEMENT_THEORY":"SGP4","REV_AT_EPOCH":"11637","MEAN_MOTION_DDOT":"0.0000000000000","OBJECT_TYPE":"PAYLOAD","APOAPSIS":"548.019","MEAN_MOTION_DOT":"0.00023587","SEMIMAJOR_AXIS":"6925.323"},{"SEMIMAJOR_AXIS":"6925.310","MEAN_MOTION_DOT":"0.00015105","OBJECT_TYPE":"PAYLOAD","APOAPSIS":"547.839","MEAN_MOTION_DDOT":"0.0000000000000","REV_AT_EPOCH":"11639","EPHEMERIS_TYPE":"0","MEAN_ELEMENT_THEORY":"SGP4","NORAD_CAT_ID":"47826","BSTAR":"0.00103040000000","CENTER_NAME":"EARTH","GP_ID":"229944192","ARG_OF_PERICENTER":"76.7856","OBJECT_ID":"2021-018AR","RCS_SIZE":"LARGE","ELEMENT_SET_NO":"999","INCLINATION":"53.0548","EPOCH":"2023-04-11T19:03:09.640512","RA_OF_ASC_NODE":"343.1387","TIME_SYSTEM":"UTC","MEAN_ANOMALY":"283.3240","REF_FRAME":"TEME","OBJECT_NAME":"STARLINK-2411","PERIAPSIS":"546.512","TLE_LINE2":"2 47826  53.0548 343.1387 0000958  76.7856 283.3240 15.06412474116390","COUNTRY_CODE":"US","ECCENTRICITY":"0.00009580","LAUNCH_DATE":"2021-03-11","DECAY_DATE":null,"PERIOD":"95.591","TLE_LINE1":"1 47826U 21018AR  23101.79386158  .00015105  00000-0  10304-2 0  9995","FILE":"3885919","MEAN_MOTION":"15.06412474","CLASSIFICATION_TYPE":"U","SITE":"AFETR"},{"TLE_LINE2":"2 47827  53.0536 332.8697 0001092  94.3504 265.7609 15.06453702116609","COUNTRY_CODE":"US","PERIAPSIS":"546.293","OBJECT_NAME":"STARLINK-2413","REF_FRAME":"TEME","TIME_SYSTEM":"UTC","MEAN_ANOMALY":"265.7609","RA_OF_ASC_NODE":"332.8697","EPOCH":"2023-04-11T21:49:03.893376","INCLINATION":"53.0536","ELEMENT_SET_NO":"999","RCS_SIZE":"LARGE","SITE":"AFETR","CLASSIFICATION_TYPE":"U","FILE":"3885919","MEAN_MOTION":"15.06453702","TLE_LINE1":"1 47827U 21018AS  23101.90907284  .00023829  00000-0  16109-2 0  9999","PERIOD":"95.589","LAUNCH_DATE":"2021-03-11","DECAY_DATE":null,"ECCENTRICITY":"0.00010920","MEAN_MOTION_DDOT":"0.0000000000000","APOAPSIS":"547.805","OBJECT_TYPE":"PAYLOAD","MEAN_MOTION_DOT":"0.00023829","SEMIMAJOR_AXIS":"6925.184","ARG_OF_PERICENTER":"94.3504","OBJECT_ID":"2021-018AS","GP_ID":"229944444","CENTER_NAME":"EARTH","BSTAR":"0.00161090000000","NORAD_CAT_ID":"47827","MEAN_ELEMENT_THEORY":"SGP4","EPHEMERIS_TYPE":"0","REV_AT_EPOCH":"11660"},{"CENTER_NAME":"EARTH","BSTAR":"0.00194780000000","OBJECT_ID":"2021-018AT","ARG_OF_PERICENTER":"91.1724","GP_ID":"229915085","REV_AT_EPOCH":"11615","NORAD_CAT_ID":"47828","MEAN_ELEMENT_THEORY":"SGP4","EPHEMERIS_TYPE":"0","APOAPSIS":"548.068","OBJECT_TYPE":"PAYLOAD","MEAN_MOTION_DDOT":"0.0000000000000","SEMIMAJOR_AXIS":"6925.285","MEAN_MOTION_DOT":"0.00028866","CLASSIFICATION_TYPE":"U","MEAN_MOTION":"15.06420673","FILE":"3885783","TLE_LINE1":"1 47828U 21018AT  23101.11474435  .00028866  00000-0  19478-2 0  9998","SITE":"AFETR","DECAY_DATE":null,"LAUNCH_DATE":"2021-03-11","ECCENTRICITY":"0.00013260","PERIOD":"95.591","OBJECT_NAME":"STARLINK-2415","REF_FRAME":"TEME","TLE_LINE2":"2 47828  53.0547 356.1907 0001326  91.1724 268.9417 15.06420673116157","COUNTRY_CODE":"US","PERIAPSIS":"546.232","INCLINATION":"53.0547","ELEMENT_SET_NO":"999","RCS_SIZE":"LARGE","RA_OF_ASC_NODE":"356.1907","TIME_SYSTEM":"UTC","MEAN_ANOMALY":"268.9417","EPOCH":"2023-04-11T02:45:13.911840"},{"APOAPSIS":"548.008","OBJECT_TYPE":"PAYLOAD","MEAN_MOTION_DDOT":"0.0000000000000","SEMIMAJOR_AXIS":"6925.309","MEAN_MOTION_DOT":"0.00018793","CENTER_NAME":"EARTH","BSTAR":"0.00127670000000","ARG_OF_PERICENTER":"89.4955","OBJECT_ID":"2021-018AU","GP_ID":"229943443","REV_AT_EPOCH":"11622","NORAD_CAT_ID":"47829","EPHEMERIS_TYPE":"0","MEAN_ELEMENT_THEORY":"SGP4","OBJECT_NAME":"STARLINK-2416","REF_FRAME":"TEME","TLE_LINE2":"2 47829  53.0546 353.7218 0001204  89.4955 270.6172 15.06412945116225","COUNTRY_CODE":"US","PERIAPSIS":"546.340","INCLINATION":"53.0546","ELEMENT_SET_NO":"999","RCS_SIZE":"LARGE","TIME_SYSTEM":"UTC","RA_OF_ASC_NODE":"353.7218","MEAN_ANOMALY":"270.6172","EPOCH":"2023-04-11T15:56:04.485120","CLASSIFICATION_TYPE":"U","MEAN_MOTION":"15.06412945","FILE":"3885919","TLE_LINE1":"1 47829U 21018AU  23101.66394080  .00018793  00000-0  12767-2 0  9998","SITE":"AFETR","LAUNCH_DATE":"2021-03-11","DECAY_DATE":null,"ECCENTRICITY":"0.00012040","PERIOD":"95.591"},{"MEAN_MOTION":"15.06367109","FILE":"3885783","TLE_LINE1":"1 47830U 21018AV  23101.06310726  .00025586  00000-0  17319-2 0  9995","CLASSIFICATION_TYPE":"U","SITE":"AFETR","LAUNCH_DATE":"2021-03-11","DECAY_DATE":null,"ECCENTRICITY":"0.00013310","PERIOD":"95.594","OBJECT_NAME":"STARLINK-2419","REF_FRAME":"TEME","PERIAPSIS":"546.393","TLE_LINE2":"2 47830  53.0549 356.4218 0001331 121.3532 238.7587 15.06367109116134","COUNTRY_CODE":"US","RCS_SIZE":"LARGE","INCLINATION":"53.0549","ELEMENT_SET_NO":"999","RA_OF_ASC_NODE":"356.4218","TIME_SYSTEM":"UTC","MEAN_ANOMALY":"238.7587","EPOCH":"2023-04-11T01:30:52.467264","BSTAR":"0.00173190000000","CENTER_NAME":"EARTH","GP_ID":"229914084","ARG_OF_PERICENTER":"121.3532","OBJECT_ID":"2021-018AV","REV_AT_EPOCH":"11613","MEAN_ELEMENT_THEORY":"SGP4","EPHEMERIS_TYPE":"0","NORAD_CAT_ID":"47830","APOAPSIS":"548.236","OBJECT_TYPE":"PAYLOAD","MEAN_MOTION_DDOT":"0.0000000000000","SEMIMAJOR_AXIS":"6925.449","MEAN_MOTION_DOT":"0.00025586"},{"ELEMENT_SET_NO":"999","INCLINATION":"53.0549","RCS_SIZE":"LARGE","EPOCH":"2023-04-11T17:26:57.081120","RA_OF_ASC_NODE":"328.4436","TIME_SYSTEM":"UTC","MEAN_ANOMALY":"236.3120","REF_FRAME":"TEME","OBJECT_NAME":"STARLINK-2420","COUNTRY_CODE":"US","TLE_LINE2":"2 47831  53.0549 328.4436 0001201 123.7984 236.3120 15.06407913116640","PERIAPSIS":"546.358","ECCENTRICITY":"0.00012010","DECAY_DATE":null,"LAUNCH_DATE":"2021-03-11","PERIOD":"95.592","CLASSIFICATION_TYPE":"U","TLE_LINE1":"1 47831U 21018AW  23101.72704955  .00018215  00000-0  12383-2 0  9997","MEAN_MOTION":"15.06407913","FILE":"3885919","SITE":"AFETR","SEMIMAJOR_AXIS":"6925.324","MEAN_MOTION_DOT":"0.00018215","OBJECT_TYPE":"PAYLOAD","APOAPSIS":"548.021","MEAN_MOTION_DDOT":"0.0000000000000","REV_AT_EPOCH":"11664","NORAD_CAT_ID":"47831","EPHEMERIS_TYPE":"0","MEAN_ELEMENT_THEORY":"SGP4","CENTER_NAME":"EARTH","BSTAR":"0.00123830000000","OBJECT_ID":"2021-018AW","ARG_OF_PERICENTER":"123.7984","GP_ID":"229944944"},{"RCS_SIZE":"LARGE","INCLINATION":"53.0544","ELEMENT_SET_NO":"999","RA_OF_ASC_NODE":"343.0390","TIME_SYSTEM":"UTC","MEAN_ANOMALY":"256.0176","EPOCH":"2023-04-11T19:35:00.605472","OBJECT_NAME":"STARLINK-2422","REF_FRAME":"TEME","PERIAPSIS":"545.995","TLE_LINE2":"2 47832  53.0544 343.0390 0001532 104.0983 256.0176 15.06451278116391","COUNTRY_CODE":"US","LAUNCH_DATE":"2021-03-11","DECAY_DATE":null,"ECCENTRICITY":"0.00015320","PERIOD":"95.589","FILE":"3885919","MEAN_MOTION":"15.06451278","TLE_LINE1":"1 47832U 21018AX  23101.81597923  .00024592  00000-0  16618-2 0  9993","CLASSIFICATION_TYPE":"U","SITE":"AFETR","SEMIMAJOR_AXIS":"6925.191","MEAN_MOTION_DOT":"0.00024592","APOAPSIS":"548.117","OBJECT_TYPE":"PAYLOAD","MEAN_MOTION_DDOT":"0.0000000000000","REV_AT_EPOCH":"11639","MEAN_ELEMENT_THEORY":"SGP4","EPHEMERIS_TYPE":"0","NORAD_CAT_ID":"47832","BSTAR":"0.00166180000000","CENTER_NAME":"EARTH","GP_ID":"229945178","OBJECT_ID":"2021-018AX","ARG_OF_PERICENTER":"104.0983"},{"GP_ID":"229943943","ARG_OF_PERICENTER":"129.0106","OBJECT_ID":"2021-018AY","BSTAR":"0.00140780000000","CENTER_NAME":"EARTH","MEAN_ELEMENT_THEORY":"SGP4","EPHEMERIS_TYPE":"0","NORAD_CAT_ID":"47833","REV_AT_EPOCH":"11644","MEAN_MOTION_DDOT":"0.0000000000000","APOAPSIS":"547.795","OBJECT_TYPE":"PAYLOAD","MEAN_MOTION_DOT":"0.00020766","SEMIMAJOR_AXIS":"6925.262","SITE":"AFETR","MEAN_MOTION":"15.06428162","FILE":"3885919","TLE_LINE1":"1 47833U 21018AY  23101.77542934  .00020766  00000-0  14078-2 0  9998","CLASSIFICATION_TYPE":"U","PERIOD":"95.590","LAUNCH_DATE":"2021-03-11","DECAY_DATE":null,"ECCENTRICITY":"0.00009640","PERIAPSIS":"546.460","COUNTRY_CODE":"US","TLE_LINE2":"2 47833  53.0551 343.2264 0000964 129.0106 231.0968 15.06428162116448","OBJECT_NAME":"STARLINK-2423","REF_FRAME":"TEME","RA_OF_ASC_NODE":"343.2264","TIME_SYSTEM":"UTC","MEAN_ANOMALY":"231.0968","EPOCH":"2023-04-11T18:36:37.094976","RCS_SIZE":"LARGE","INCLINATION":"53.0551","ELEMENT_SET_NO":"999"},{"TIME_SYSTEM":"UTC","RA_OF_ASC_NODE":"342.5793","MEAN_ANOMALY":"276.7549","EPOCH":"2023-04-11T22:03:36.865152","INCLINATION":"53.0539","ELEMENT_SET_NO":"999","RCS_SIZE":"LARGE","TLE_LINE2":"2 47834  53.0539 342.5793 0000874  83.3539 276.7549 15.06440756116462","COUNTRY_CODE":"US","PERIAPSIS":"546.483","OBJECT_NAME":"STARLINK-2424","REF_FRAME":"TEME","PERIOD":"95.590","DECAY_DATE":null,"LAUNCH_DATE":"2021-03-11","ECCENTRICITY":"0.00008740","SITE":"AFETR","CLASSIFICATION_TYPE":"U","MEAN_MOTION":"15.06440756","FILE":"3885919","TLE_LINE1":"1 47834U 21018AZ  23101.91917668  .00023608  00000-0  15967-2 0  9991","MEAN_MOTION_DOT":"0.00023608","SEMIMAJOR_AXIS":"6925.224","MEAN_MOTION_DDOT":"0.0000000000000","APOAPSIS":"547.694","OBJECT_TYPE":"PAYLOAD","NORAD_CAT_ID":"47834","EPHEMERIS_TYPE":"0","MEAN_ELEMENT_THEORY":"SGP4","REV_AT_EPOCH":"11646","ARG_OF_PERICENTER":"83.3539","OBJECT_ID":"2021-018AZ","GP_ID":"229944193","CENTER_NAME":"EARTH","BSTAR":"0.00159670000000"}];
